[{"OBJECT_NAME":"STARLINK-35280","OBJECT_ID":"2025-232W","EPOCH":"2026-03-09T18:47:31.049664","MEAN_MOTION":15.30199526,"ECCENTRICITY":0.00013417,"INCLINATION":53.1572,"RA_OF_ASC_NODE":103.2014,"ARG_OF_PERICENTER":73.6624,"MEAN_ANOMALY":286.4525,"EPHEMERIS_TYPE":0,"CLASSIFICATION_TYPE":"U","NORAD_CAT_ID":66025,"ELEMENT_SET_NO":999,"REV_AT_EPOCH":2345,"BSTAR":0.00025835922,"MEAN_MOTION_DOT":7.3e-5,"MEAN_MOTION_DDOT":0},{"OBJECT_NAME":"SL-3 R\/B","OBJECT_ID":"1981-065B","EPOCH":"2026-03-09T21:58:16.284000","MEAN_MOTION":15.33300883,"ECCENTRICITY":0.00117648,"INCLINATION":97.6337,"RA_OF_ASC_NODE":111.1786,"ARG_OF_PERICENTER":10.529,"MEAN_ANOMALY":349.6196,"EPHEMERIS_TYPE":0,"CLASSIFICATION_TYPE":"U","NORAD_CAT_ID":12586,"ELEMENT_SET_NO":999,"REV_AT_EPOCH":43499,"BSTAR":0.00030084921,"MEAN_MOTION_DOT":9.62e-5,"MEAN_MOTION_DDOT":0}]
